CTC2_L_00100001-01
1 10000U 24383SM  26075.70041667  .00000000  00000+0  00000-0 0  9991
2 10000  60.0000   0.0000 0000000   0.0000   0.0000 14.60983543    13
CTC2_L_00100001-02
1 10001U 25744LK  26075.70041667  .00000000  00000+0  00000-0 0  9994
2 10001  60.0000   0.0000 0000000   0.0000  90.0000 14.60983543    13
CTC2_L_00100001-03
1 10002U 26551LI  26075.70041667  .00000000  00000+0  00000-0 0  9992
2 10002  60.0000   0.0000 0000000   0.0000 180.0000 14.60983543    14
CTC2_L_00100001-04
1 10003U 23358JK  26075.70041667  .00000000  00000+0  00000-0 0  9995
2 10003  60.0000   0.0000 0000000   0.0000 270.0000 14.60983543    15
CTC2_L_00100002-01
1 10004U 26542MB  26075.70041667  .00000000  00000+0  00000-0 0  9994
2 10004  60.0000  12.0000 0000000   0.0000  12.0000 14.60983543    13
CTC2_L_00100002-02
1 10005U 24636SC  26075.70041667  .00000000  00000+0  00000-0 0  9997
2 10005  60.0000  12.0000 0000000   0.0000 102.0000 14.60983543    14
CTC2_L_00100002-03
1 10006U 24353BF  26075.70041667  .00000000  00000+0  00000-0 0  9994
2 10006  60.0000  12.0000 0000000   0.0000 192.0000 14.60983543    14
CTC2_L_00100002-04
1 10007U 23626CU  26075.70041667  .00000000  00000+0  00000-0 0  9997
2 10007  60.0000  12.0000 0000000   0.0000 282.0000 14.60983543    15
CTC2_L_00100003-01
1 10008U 26094AH  26075.70041667  .00000000  00000+0  00000-0 0  9990
2 10008  60.0000  24.0000 0000000   0.0000  24.0000 14.60983543    13
CTC2_L_00100003-02
1 10009U 25373RQ  26075.70041667  .00000000  00000+0  00000-0 0  9990
2 10009  60.0000  24.0000 0000000   0.0000 114.0000 14.60983543    14
CTC2_L_00100003-03
1 10010U 22649XF  26075.70041667  .00000000  00000+0  00000-0 0  9995
2 10010  60.0000  24.0000 0000000   0.0000 204.0000 14.60983543    16
CTC2_L_00100003-04
1 10011U 23578IH  26075.70041667  .00000000  00000+0  00000-0 0  9998
2 10011  60.0000  24.0000 0000000   0.0000 294.0000 14.60983543    16
CTC2_L_00100004-01
1 10012U 23393TA  26075.70041667  .00000000  00000+0  00000-0 0  9994
2 10012  60.0000  36.0000 0000000   0.0000  36.0000 14.60983543    14
CTC2_L_00100004-02
1 10013U 26032JX  26075.70041667  .00000000  00000+0  00000-0 0  9998
2 10013  60.0000  36.0000 0000000   0.0000 126.0000 14.60983543    15
CTC2_L_00100004-03
1 10014U 26205KA  26075.70041667  .00000000  00000+0  00000-0 0  9991
2 10014  60.0000  36.0000 0000000   0.0000 216.0000 14.60983543    16
CTC2_L_00100004-04
1 10015U 24582DL  26075.70041667  .00000000  00000+0  00000-0 0  9998
2 10015  60.0000  36.0000 0000000   0.0000 306.0000 14.60983543    17
CTC2_L_00100005-01
1 10016U 25356PO  26075.70041667  .00000000  00000+0  00000-0 0  9999
2 10016  60.0000  48.0000 0000000   0.0000  48.0000 14.60983543    14
CTC2_L_00100005-02
1 10017U 25640OR  26075.70041667  .00000000  00000+0  00000-0 0  9996
2 10017  60.0000  48.0000 0000000   0.0000 138.0000 14.60983543    15
CTC2_L_00100005-03
1 10018U 22605SY  26075.70041667  .00000000  00000+0  00000-0 0  9995
2 10018  60.0000  48.0000 0000000   0.0000 228.0000 14.60983543    16
CTC2_L_00100005-04
1 10019U 23285XK  26075.70041667  .00000000  00000+0  00000-0 0  9991
2 10019  60.0000  48.0000 0000000   0.0000 318.0000 14.60983543    17
CTC2_L_00100006-01
1 10020U 25679LD  26075.70041667  .00000000  00000+0  00000-0 0  9992
2 10020  60.0000  60.0000 0000000   0.0000  60.0000 14.60983543    17
CTC2_L_00100006-02
1 10021U 23117BB  26075.70041667  .00000000  00000+0  00000-0 0  9998
2 10021  60.0000  60.0000 0000000   0.0000 150.0000 14.60983543    18
CTC2_L_00100006-03
1 10022U 24855YD  26075.70041667  .00000000  00000+0  00000-0 0  9999
2 10022  60.0000  60.0000 0000000   0.0000 240.0000 14.60983543    19
CTC2_L_00100006-04
1 10023U 26112DR  26075.70041667  .00000000  00000+0  00000-0 0  9998
2 10023  60.0000  60.0000 0000000   0.0000 330.0000 14.60983543    10
CTC2_L_00100007-01
1 10024U 22250FY  26075.70041667  .00000000  00000+0  00000-0 0  9998
2 10024  60.0000  72.0000 0000000   0.0000  72.0000 14.60983543    17
CTC2_L_00100007-02
1 10025U 24589RC  26075.70041667  .00000000  00000+0  00000-0 0  9996
2 10025  60.0000  72.0000 0000000   0.0000 162.0000 14.60983543    18
CTC2_L_00100007-03
1 10026U 25373JS  26075.70041667  .00000000  00000+0  00000-0 0  9999
2 10026  60.0000  72.0000 0000000   0.0000 252.0000 14.60983543    19
CTC2_L_00100007-04
1 10027U 26104KW  26075.70041667  .00000000  00000+0  00000-0 0  9993
2 10027  60.0000  72.0000 0000000   0.0000 342.0000 14.60983543    10
CTC2_L_00100008-01
1 10028U 24775AS  26075.70041667  .00000000  00000+0  00000-0 0  9996
2 10028  60.0000  84.0000 0000000   0.0000  84.0000 14.60983543    17
CTC2_L_00100008-02
1 10029U 23814WA  26075.70041667  .00000000  00000+0  00000-0 0  9990
2 10029  60.0000  84.0000 0000000   0.0000 174.0000 14.60983543    18
CTC2_L_00100008-03
1 10030U 23163QX  26075.70041667  .00000000  00000+0  00000-0 0  9999
2 10030  60.0000  84.0000 0000000   0.0000 264.0000 14.60983543    10
CTC2_L_00100008-04
1 10031U 22684ML  26075.70041667  .00000000  00000+0  00000-0 0  9997
2 10031  60.0000  84.0000 0000000   0.0000 354.0000 14.60983543    11
CTC2_L_00100009-01
1 10032U 25070IG  26075.70041667  .00000000  00000+0  00000-0 0  9990
2 10032  60.0000  96.0000 0000000   0.0000  96.0000 14.60983543    18
CTC2_L_00100009-02
1 10033U 25075AU  26075.70041667  .00000000  00000+0  00000-0 0  9996
2 10033  60.0000  96.0000 0000000   0.0000 186.0000 14.60983543    19
CTC2_L_00100009-03
1 10034U 24590BT  26075.70041667  .00000000  00000+0  00000-0 0  9998
2 10034  60.0000  96.0000 0000000   0.0000 276.0000 14.60983543    10
CTC2_L_00100009-04
1 10035U 26130TA  26075.70041667  .00000000  00000+0  00000-0 0  9991
2 10035  60.0000  96.0000 0000000   0.0000   6.0000 14.60983543    12
CTC2_L_00100010-01
1 10036U 25467RX  26075.70041667  .00000000  00000+0  00000-0 0  9994
2 10036  60.0000 108.0000 0000000   0.0000 108.0000 14.60983543    10
CTC2_L_00100010-02
1 10037U 26836NR  26075.70041667  .00000000  00000+0  00000-0 0  9996
2 10037  60.0000 108.0000 0000000   0.0000 198.0000 14.60983543    10
CTC2_L_00100010-03
1 10038U 25198QE  26075.70041667  .00000000  00000+0  00000-0 0  9997
2 10038  60.0000 108.0000 0000000   0.0000 288.0000 14.60983543    11
CTC2_L_00100010-04
1 10039U 22836CC  26075.70041667  .00000000  00000+0  00000-0 0  9994
2 10039  60.0000 108.0000 0000000   0.0000  18.0000 14.60983543    13
CTC2_L_00100011-01
1 10040U 25184EO  26075.70041667  .00000000  00000+0  00000-0 0  9995
2 10040  60.0000 120.0000 0000000   0.0000 120.0000 14.60983543    13
CTC2_L_00100011-02
1 10041U 24898LI  26075.70041667  .00000000  00000+0  00000-0 0  9997
2 10041  60.0000 120.0000 0000000   0.0000 210.0000 14.60983543    14
CTC2_L_00100011-03
1 10042U 25840DE  26075.70041667  .00000000  00000+0  00000-0 0  9996
2 10042  60.0000 120.0000 0000000   0.0000 300.0000 14.60983543    15
CTC2_L_00100011-04
1 10043U 24250EM  26075.70041667  .00000000  00000+0  00000-0 0  9991
2 10043  60.0000 120.0000 0000000   0.0000  30.0000 14.60983543    16
CTC2_L_00100012-01
1 10044U 22913XF  26075.70041667  .00000000  00000+0  00000-0 0  9996
2 10044  60.0000 132.0000 0000000   0.0000 132.0000 14.60983543    13
CTC2_L_00100012-02
1 10045U 25521AH  26075.70041667  .00000000  00000+0  00000-0 0  9995
2 10045  60.0000 132.0000 0000000   0.0000 222.0000 14.60983543    14
CTC2_L_00100012-03
1 10046U 22102MO  26075.70041667  .00000000  00000+0  00000-0 0  9998
2 10046  60.0000 132.0000 0000000   0.0000 312.0000 14.60983543    15
CTC2_L_00100012-04
1 10047U 26259IK  26075.70041667  .00000000  00000+0  00000-0 0  9996
2 10047  60.0000 132.0000 0000000   0.0000  42.0000 14.60983543    16
CTC2_L_00100013-01
1 10048U 23160UE  26075.70041667  .00000000  00000+0  00000-0 0  9995
2 10048  60.0000 144.0000 0000000   0.0000 144.0000 14.60983543    13
CTC2_L_00100013-02
1 10049U 25915P   26075.70041667  .00000000  00000+0  00000-0 0  9996
2 10049  60.0000 144.0000 0000000   0.0000 234.0000 14.60983543    14
CTC2_L_00100013-03
1 10050U 26144ZN  26075.70041667  .00000000  00000+0  00000-0 0  9993
2 10050  60.0000 144.0000 0000000   0.0000 324.0000 14.60983543    16
CTC2_L_00100013-04
1 10051U 24732DN  26075.70041667  .00000000  00000+0  00000-0 0  9995
2 10051  60.0000 144.0000 0000000   0.0000  54.0000 14.60983543    17
CTC2_L_00100014-01
1 10052U 26793JY  26075.70041667  .00000000  00000+0  00000-0 0  9995
2 10052  60.0000 156.0000 0000000   0.0000 156.0000 14.60983543    14
CTC2_L_00100014-02
1 10053U 25944QD  26075.70041667  .00000000  00000+0  00000-0 0  9993
2 10053  60.0000 156.0000 0000000   0.0000 246.0000 14.60983543    15
CTC2_L_00100014-03
1 10054U 25365YR  26075.70041667  .00000000  00000+0  00000-0 0  9991
2 10054  60.0000 156.0000 0000000   0.0000 336.0000 14.60983543    16
CTC2_L_00100014-04
1 10055U 23011QY  26075.70041667  .00000000  00000+0  00000-0 0  9998
2 10055  60.0000 156.0000 0000000   0.0000  66.0000 14.60983543    17
CTC2_L_00100015-01
1 10056U 22323YX  26075.70041667  .00000000  00000+0  00000-0 0  9994
2 10056  60.0000 168.0000 0000000   0.0000 168.0000 14.60983543    14
CTC2_L_00100015-02
1 10057U 23432SR  26075.70041667  .00000000  00000+0  00000-0 0  9997
2 10057  60.0000 168.0000 0000000   0.0000 258.0000 14.60983543    15
CTC2_L_00100015-03
1 10058U 25491X   26075.70041667  .00000000  00000+0  00000-0 0  9995
2 10058  60.0000 168.0000 0000000   0.0000 348.0000 14.60983543    16
CTC2_L_00100015-04
1 10059U 25830PF  26075.70041667  .00000000  00000+0  00000-0 0  9993
2 10059  60.0000 168.0000 0000000   0.0000  78.0000 14.60983543    17
CTC2_L_00100016-01
1 10060U 26577BG  26075.70041667  .00000000  00000+0  00000-0 0  9994
2 10060  60.0000 180.0000 0000000   0.0000 180.0000 14.60983543    17
CTC2_L_00100016-02
1 10061U 24714VF  26075.70041667  .00000000  00000+0  00000-0 0  9996
2 10061  60.0000 180.0000 0000000   0.0000 270.0000 14.60983543    18
